[{"OBJECT_NAME":"CSTP 1.2 (STC 1.2)","OBJECT_ID":"2023-091W","EPOCH":"2026-03-09T23:12:27.821952","MEAN_MOTION":15.2718076,"ECCENTRICITY":0.00204388,"INCLINATION":97.5258,"RA_OF_ASC_NODE":134.3262,"ARG_OF_PERICENTER":84.9592,"MEAN_ANOMALY":275.3979,"EPHEMERIS_TYPE":0,"CLASSIFICATION_TYPE":"U","NORAD_CAT_ID":57186,"ELEMENT_SET_NO":999,"REV_AT_EPOCH":14930,"BSTAR":0.00043035718,"MEAN_MOTION_DOT":0.00011466,"MEAN_MOTION_DDOT":0},{"OBJECT_NAME":"STARLINK-31674","OBJECT_ID":"2024-073G","EPOCH":"2026-03-09T01:57:19.827936","MEAN_MOTION":15.27569136,"ECCENTRICITY":6.091e-5,"INCLINATION":43.0001,"RA_OF_ASC_NODE":321.3705,"ARG_OF_PERICENTER":273.7961,"MEAN_ANOMALY":86.2821,"EPHEMERIS_TYPE":0,"CLASSIFICATION_TYPE":"U","NORAD_CAT_ID":59517,"ELEMENT_SET_NO":999,"REV_AT_EPOCH":10608,"BSTAR":-7.2693201e-5,"MEAN_MOTION_DOT":-2.261e-5,"MEAN_MOTION_DDOT":0}]
